NORAD_CAT_ID,OBJECT_NAME,OBJECT_TYPE,EPOCH,MEAN_MOTION,ECCENTRICITY,INCLINATION,RA_OF_ASC_NODE,ARG_OF_PERICENTER,MEAN_ANOMALY,BSTAR,MEAN_MOTION_DOT,MEAN_MOTION_DDOT,TLE_LINE0,TLE_LINE1,TLE_LINE2,SEMIMAJOR_AXIS,PERIOD,APOGEE,PERIGEE,DECAYED
55952.0,STARLINK-5893,PAYLOAD,2023-05-17 18:17:57,15.69917993,0.0003257,69.9997,9.5744,262.9153,97.1673,4.5692e-05,5.283e-05,0.0,0 STARLINK-5893,1 55952U 23037AQ  23137.76246689  .00005283  00000-0  45692-4 0  9993,2 55952  69.9997   9.5744 0003257 262.9153  97.1673 15.69917993  9765,6737.269,91.725,361.328,356.939,0.0
55952.0,STARLINK-5893,PAYLOAD,2023-05-18 00:25:48,15.68613405,0.0004398,70.0004,8.859,164.7419,195.3909,-0.0026873,-0.00295898,0.0,0 STARLINK-5893,1 55952U 23037AQ  23138.01792581 -.00295898  00000-0 -26873-2 0  9992,2 55952  70.0004   8.8590 0004398 164.7419 195.3909 15.68613405 10146,6741.004,91.801,365.833,359.904,0.0
55952.0,STARLINK-5893,PAYLOAD,2023-05-18 14:00:01,15.69919758,0.0003484,70.0012,7.2659,266.2766,51.7562,0.00027667,0.00033181,0.0,0 STARLINK-5893,1 55952U 23037AQ  23138.58334491  .00033181  00000-0  27667-3 0  9992,2 55952  70.0012   7.2659 0003484 266.2766  51.7562 15.69919758 10233,6737.264,91.724,361.476,356.781,0.0
55952.0,STARLINK-5893,PAYLOAD,2023-05-18 18:45:59,15.6993061,0.000358,69.9996,6.7078,264.0745,96.0043,6.3729e-06,5.54e-06,0.0,0 STARLINK-5893,1 55952U 23037AQ  23138.78193355  .00000554  00000-0  63729-5 0  9995,2 55952  69.9996   6.7078 0003580 264.0745  96.0043 15.69930610  9920,6737.233,91.724,361.509,356.686,0.0
55952.0,STARLINK-5893,PAYLOAD,2023-05-19 00:52:59,15.69925752,0.0003392,69.9997,5.9912,264.1439,95.937,3.6226e-05,4.146e-05,0.0,0 STARLINK-5893,1 55952U 23037AQ  23139.03680239  .00004146  00000-0  36226-4 0  9998,2 55952  69.9997   5.9912 0003392 264.1439  95.9370 15.69925752 10307,6737.246,91.724,361.397,356.826,0.0
55952.0,STARLINK-5893,PAYLOAD,2023-05-19 19:14:01,15.69921516,0.0003563,69.9993,3.8414,265.4141,94.6648,-1.5048e-06,-3.94e-06,0.0,0 STARLINK-5893,1 55952U 23037AQ  23139.80140544 -.00000394  00000-0 -15048-5 0  9996,2 55952  69.9993   3.8414 0003563 265.4141  94.6648 15.69921516 10084,6737.259,91.724,361.524,356.723,0.0
55952.0,STARLINK-5893,PAYLOAD,2023-05-20 18:10:17,15.69926956,0.0003115,69.9997,1.1545,239.1544,120.9345,1.621e-06,-1.8e-07,0.0,0 STARLINK-5893,1 55952U 23037AQ  23140.75715117 -.00000018  00000-0  16210-5 0  9990,2 55952  69.9997   1.1545 0003115 239.1544 120.9345 15.69926956 10576,6737.243,91.724,361.207,357.009,0.0
55952.0,STARLINK-5893,PAYLOAD,2023-05-20 21:13:48,15.69924828,0.0003642,69.9977,0.7962,269.9123,90.1655,4.5329e-06,3.32e-06,0.0,0 STARLINK-5893,1 55952U 23037AQ  23140.88458887  .00000332  00000-0  45329-5 0  9993,2 55952  69.9977   0.7962 0003642 269.9123  90.1655 15.69924828 10254,6737.249,91.724,361.568,356.66,0.0
55952.0,STARLINK-5893,PAYLOAD,2023-05-21 00:17:20,15.69902003,0.0003385,69.9972,0.4348,264.5359,95.5451,-2.0483e-05,-2.673e-05,0.0,0 STARLINK-5893,1 55952U 23037AQ  23141.01203974 -.00002673  00000-0 -20483-4 0  9999,2 55952  69.9972   0.4348 0003385 264.5359  95.5451 15.69902003 10614,6737.314,91.725,361.46,356.899,0.0
55952.0,STARLINK-5893,PAYLOAD,2023-05-21 15:34:50,15.69920088,0.000318,69.9973,358.6443,281.6547,78.4292,-7.4884e-06,-1.113e-05,0.0,0 STARLINK-5893,1 55952U 23037AQ  23141.64920116 -.00001113  00000-0 -74884-5 0  9995,2 55952  69.9973 358.6443 0003180 281.6547  78.4292 15.69920088 10718,6737.263,91.724,361.27,356.985,0.0
55952.0,STARLINK-5893,PAYLOAD,2023-05-21 18:38:19,15.6994295,0.0003169,69.9976,358.2867,284.0165,76.0678,1.7672e-05,1.914e-05,0.0,0 STARLINK-5893,1 55952U 23037AQ  23141.77661677  .00001914  00000-0  17672-4 0  9991,2 55952  69.9976 358.2867 0003169 284.0165  76.0678 15.69942950 10395,6737.197,91.723,361.197,356.927,0.0
55952.0,STARLINK-5893,PAYLOAD,2023-05-22 00:45:20,15.6992607,0.000307,69.9992,357.5704,292.1059,67.981,-1.6377e-06,-4.09e-06,0.0,0 STARLINK-5893,1 55952U 23037AQ  23142.03149286 -.00000409  00000-0 -16377-5 0  9990,2 55952  69.9992 357.5704 0003070 292.1059  67.9810 15.69926070 10772,6737.246,91.724,361.179,357.042,0.0
55952.0,STARLINK-5893,PAYLOAD,2023-05-22 20:38:07,15.69923762,0.0003479,69.9993,355.2417,256.5837,103.4971,1.7044e-06,-8e-08,0.0,0 STARLINK-5893,1 55952U 23037AQ  23142.85980700 -.00000008  00000-0  17044-5 0  9990,2 55952  69.9993 355.2417 0003479 256.5837 103.4971 15.69923762 10566,6737.252,91.724,361.461,356.773,0.0
55952.0,STARLINK-5893,PAYLOAD,2023-05-23 04:16:53,15.69918546,0.0003882,69.9972,354.3466,268.7951,91.28,9.332e-06,9.09e-06,0.0,0 STARLINK-5893,1 55952U 23037AQ  23143.17839470  .00000909  00000-0  93320-5 0  9993,2 55952  69.9972 354.3466 0003882 268.7951  91.2800 15.69918546 10959,6737.267,91.725,361.747,356.517,0.0
55952.0,STARLINK-5893,PAYLOAD,2023-05-23 16:30:54,15.69933027,0.0003901,69.9975,352.9128,270.5248,89.5501,-7.4528e-06,-1.11e-05,0.0,0 STARLINK-5893,1 55952U 23037AQ  23143.68812575 -.00001110  00000-0 -74528-5 0  9992,2 55952  69.9975 352.9128 0003901 270.5248  89.5501 15.69933027 11032,6737.226,91.724,361.719,356.462,0.0
55952.0,STARLINK-5893,PAYLOAD,2023-05-24 00:09:39,15.69939885,0.0003915,69.9975,352.0178,270.4103,89.6644,7.3348e-07,-1.25e-06,0.0,0 STARLINK-5893,1 55952U 23037AQ  23144.00670154 -.00000125  00000-0  73348-6 0  9998,2 55952  69.9975 352.0178 0003915 270.4103  89.6644 15.69939885 11084,6737.206,91.723,361.709,356.433,0.0
55952.0,STARLINK-5893,PAYLOAD,2023-05-24 15:27:11,15.69918207,0.0004064,69.9971,350.2255,267.9572,92.1158,8.623e-06,8.24e-06,0.0,0 STARLINK-5893,1 55952U 23037AQ  23144.64387909  .00000824  00000-0  86230-5 0  9999,2 55952  69.9971 350.2255 0004064 267.9572  92.1158 15.69918207 11188,6737.268,91.725,361.871,356.395,0.0
55952.0,STARLINK-5893,PAYLOAD,2023-05-25 14:23:27,15.69923012,0.0003699,69.9966,347.5356,258.7823,101.2957,9.2775e-06,9.03e-06,0.0,0 STARLINK-5893,1 55952U 23037AQ  23145.59962808  .00000903  00000-0  92775-5 0  9990,2 55952  69.9966 347.5356 0003699 258.7823 101.2957 15.69923012 10990,6737.254,91.724,361.611,356.627,0.0
55952.0,STARLINK-5893,PAYLOAD,2023-05-25 15:55:12,15.69923784,0.0003707,69.9966,347.3564,258.2783,101.7997,1.0323e-05,1.028e-05,0.0,0 STARLINK-5893,1 55952U 23037AQ  23145.66334416  .00001028  00000-0  10323-4 0  9993,2 55952  69.9966 347.3564 0003707 258.2783 101.7997 15.69923784 11344,6737.252,91.724,361.615,356.62,0.0
55952.0,STARLINK-5893,PAYLOAD,2023-05-25 22:02:12,15.69933418,0.0003681,69.9967,346.6407,260.4589,99.6191,9.1522e-06,8.88e-06,0.0,0 STARLINK-5893,1 55952U 23037AQ  23145.91820481  .00000888  00000-0  91522-5 0  9997,2 55952  69.9967 346.6407 0003681 260.4589  99.6191 15.69933418 11046,6737.224,91.724,361.569,356.61,0.0
55952.0,STARLINK-5893,PAYLOAD,2023-05-25 23:33:58,15.69931193,0.0003651,69.9971,346.4628,262.2858,97.7923,7.6211e-06,7.04e-06,0.0,0 STARLINK-5893,1 55952U 23037AQ  23145.98192353  .00000704  00000-0  76211-5 0  9999,2 55952  69.9971 346.4628 0003651 262.2858  97.7923 15.69931193 11051,6737.231,91.724,361.556,356.636,0.0
55952.0,STARLINK-5893,PAYLOAD,2023-05-26 16:23:14,15.69925283,0.0003573,69.9969,344.4904,263.9686,96.1103,2.7434e-06,1.17e-06,0.0,0 STARLINK-5893,1 55952U 23037AQ  23146.68281242  .00000117  00000-0  27434-5 0  9994,2 55952  69.9969 344.4904 0003573 263.9686  96.1103 15.69925283 11509,6737.248,91.724,361.52,356.706,0.0
55952.0,STARLINK-5893,PAYLOAD,2023-05-26 20:58:30,15.69927816,0.0003672,69.9967,343.953,265.8787,94.1989,6.8266e-06,6.08e-06,0.0,0 STARLINK-5893,1 55952U 23037AQ  23146.87395962  .00000608  00000-0  68266-5 0  9993,2 55952  69.9967 343.9530 0003672 265.8787  94.1989 15.69927816 11198,6737.241,91.724,361.579,356.632,0.0
55952.0,STARLINK-5893,PAYLOAD,2023-05-27 21:26:31,15.69930876,0.0003505,69.9965,341.0867,273.3356,86.7438,6.0727e-06,5.18e-06,0.0,0 STARLINK-5893,1 55952U 23037AQ  23147.89342555  .00000518  00000-0  60727-5 0  9990,2 55952  69.9965 341.0867 0003505 273.3356  86.7438 15.69930876 11353,6737.232,91.724,361.458,356.735,0.0
55952.0,STARLINK-5893,PAYLOAD,2023-05-27 22:58:17,15.6992859,0.0003539,69.9961,340.9068,274.9742,85.1049,5.242e-06,4.18e-06,0.0,0 STARLINK-5893,1 55952U 23037AQ  23147.95714445  .00000418  00000-0  52420-5 0  9998,2 55952  69.9961 340.9068 0003539 274.9742  85.1049 15.69928590 11703,6737.238,91.724,361.488,356.719,0.0
55952.0,STARLINK-5893,PAYLOAD,2023-05-28 20:22:48,15.69931235,0.0003603,69.9971,338.4009,271.3767,88.7016,1.2854e-05,1.333e-05,0.0,0 STARLINK-5893,1 55952U 23037AQ  23148.84917405  .00001333  00000-0  12854-4 0  9991,2 55952  69.9971 338.4009 0003603 271.3767  88.7016 15.69931235 11502,6737.231,91.724,361.523,356.668,0.0
55952.0,STARLINK-5893,PAYLOAD,2023-05-28 21:54:34,15.69921422,0.0003147,69.9972,338.221,280.5857,79.4984,3.9876e-06,2.67e-06,0.0,0 STARLINK-5893,1 55952U 23037AQ  23148.91290013  .00000267  00000-0  39876-5 0  9997,2 55952  69.9972 338.2210 0003147 280.5857  79.4984 15.69921422 11856,6737.259,91.724,361.244,357.004,0.0
55952.0,STARLINK-5893,PAYLOAD,2023-05-29 05:33:20,15.69910719,0.0003469,69.997,337.3248,278.4542,81.6261,-5.8757e-07,-2.83e-06,0.0,0 STARLINK-5893,1 55952U 23037AQ  23149.23149197 -.00000283  00000-0 -58757-6 0  9999,2 55952  69.9970 337.3248 0003469 278.4542  81.6261 15.69910719 11905,6737.289,91.725,361.492,356.817,0.0
55952.0,STARLINK-5893,PAYLOAD,2023-05-29 14:43:51,15.69914214,0.0003657,69.9978,336.2485,281.6276,78.4509,1.7613e-06,-1e-08,0.0,0 STARLINK-5893,1 55952U 23037AQ  23149.61379132 -.00000001  00000-0  17613-5 0  9997,2 55952  69.9978 336.2485 0003657 281.6276  78.4509 15.69914214 11625,6737.279,91.725,361.608,356.681,0.0
55952.0,STARLINK-5893,PAYLOAD,2023-05-29 16:15:36,15.6992442,0.0003201,69.9989,336.0743,266.6965,93.3864,7.4371e-06,6.82e-06,0.0,0 STARLINK-5893,1 55952U 23037AQ  23149.67750099  .00000682  00000-0  74371-5 0  9996,2 55952  69.9989 336.0743 0003201 266.6965  93.3864 15.69924420 11973,6737.25,91.724,361.272,356.959,0.0
